{
    "links": {
        "self": "http://www.neowsapp.com/rest/v1/neo/3717359?api_key=iIulBulltgU6a56xZRHN4H3l9WmuAYTsLGpBGhQ2"
    },
    "id": "3717359",
    "neo_reference_id": "3717359",
    "name": "(2015 HP43)",
    "designation": "2015 HP43",
    "nasa_jpl_url": "http://ssd.jpl.nasa.gov/sbdb.cgi?sstr=3717359",
    "absolute_magnitude_h": 21.1,
    "estimated_diameter": {
        "kilometers": {
            "estimated_diameter_min": 0.160160338,
            "estimated_diameter_max": 0.358129403
        },
        "meters": {
            "estimated_diameter_min": 160.1603379786,
            "estimated_diameter_max": 358.1294030194
        },
        "miles": {
            "estimated_diameter_min": 0.0995189894,
            "estimated_diameter_max": 0.2225312253
        },
        "feet": {
            "estimated_diameter_min": 525.4604432536,
            "estimated_diameter_max": 1174.9652706022
        }
    },
    "is_potentially_hazardous_asteroid": false,
    "close_approach_data": [
        {
            "close_approach_date": "1958-06-03",
            "close_approach_date_full": "1958-Jun-03 05:34",
            "epoch_date_close_approach": -365451960000,
            "relative_velocity": {
                "kilometers_per_second": "15.3136852954",
                "kilometers_per_hour": "55129.2670632899",
                "miles_per_hour": "34255.182637187"
            },
            "miss_distance": {
                "astronomical": "0.3347536408",
                "lunar": "130.2191662712",
                "kilometers": "50078431.638425096",
                "miles": "31117294.4919984848"
            },
            "orbiting_body": "Earth"
        },
        {
            "close_approach_date": "2005-05-05",
            "close_approach_date_full": "2005-May-05 04:15",
            "epoch_date_close_approach": 1115266500000,
            "relative_velocity": {
                "kilometers_per_second": "12.1774584309",
                "kilometers_per_hour": "43838.8503513325",
                "miles_per_hour": "27239.7567641377"
            },
            "miss_distance": {
                "astronomical": "0.3240319413",
                "lunar": "126.0484251657",
                "kilometers": "48474488.230445031",
                "miles": "30120650.2732861878"
            },
            "orbiting_body": "Earth"
        },
        {
            "close_approach_date": "2015-05-20",
            "close_approach_date_full": "2015-May-20 05:07",
            "epoch_date_close_approach": 1432098420000,
            "relative_velocity": {
                "kilometers_per_second": "10.875115224",
                "kilometers_per_hour": "39150.4148062636",
                "miles_per_hour": "24326.5452444808"
            },
            "miss_distance": {
                "astronomical": "0.1336447803",
                "lunar": "51.9878195367",
                "kilometers": "19992974.469497961",
                "miles": "12423058.2704794218"
            },
            "orbiting_body": "Earth"
        },
        {
            "close_approach_date": "2025-06-08",
            "close_approach_date_full": "2025-Jun-08 06:43",
            "epoch_date_close_approach": 1749364980000,
            "relative_velocity": {
                "kilometers_per_second": "17.314001115",
                "kilometers_per_hour": "62330.4040140929",
                "miles_per_hour": "38729.6890942012"
            },
            "miss_distance": {
                "astronomical": "0.4249504057",
                "lunar": "165.3057078173",
                "kilometers": "63571675.548355859",
                "miles": "39501607.4718704942"
            },
            "orbiting_body": "Earth"
        }
    ],
    "orbital_data": {
        "orbit_id": "36",
        "orbit_determination_date": "2018-02-10 07:06:43",
        "first_observation_date": "2015-04-23",
        "last_observation_date": "2015-06-12",
        "data_arc_in_days": 50,
        "observations_used": 283,
        "orbit_uncertainty": "6",
        "minimum_orbit_intersection": ".132769",
        "jupiter_tisserand_invariant": "3.411",
        "epoch_osculation": "2459000.5",
        "eccentricity": ".494156588409579",
        "semi_major_axis": "2.23930013679232",
        "inclination": "17.53794039817947",
        "ascending_node_longitude": "62.92222048345406",
        "orbital_period": "1223.959047042883",
        "perihelion_distance": "1.132735220769924",
        "perihelion_argument": "162.5941392763349",
        "aphelion_distance": "3.345865052814717",
        "perihelion_time": "2459598.505082886585",
        "mean_anomaly": "184.1102671210307",
        "mean_motion": ".294127488064057",
        "equinox": "J2000",
        "orbit_class": {
            "orbit_class_type": "AMO",
            "orbit_class_description": "Near-Earth asteroid orbits similar to that of 1221 Amor",
            "orbit_class_range": "1.017 AU < q (perihelion) < 1.3 AU"
        }
    },
    "is_sentry_object": false
}